start=new Date('2022-01-31T00:00:00.000Z').valueOf();
sats=[{"MEAN_MOTION_DDOT":"0.0000000000000","CLASSIFICATION_TYPE":"U","LAUNCH_DATE":"2021-03-04","PERIOD":"95.592","TLE_LINE1":"1 47753U 21017AH  22030.91678581  .00000645  00000-0  62213-4 0  9992","FILE":"3287903","OBJECT_NAME":"STARLINK-2170","RCS_SIZE":"LARGE","MEAN_ANOMALY":"293.6483","OBJECT_ID":"2021-017AH","OBJECT_TYPE":"PAYLOAD","CENTER_NAME":"EARTH","REF_FRAME":"TEME","PERIAPSIS":"546.151","MEAN_MOTION":"15.06398799","MEAN_MOTION_DOT":"0.00000645","SITE":"AFETR","GP_ID":"194983431","APOAPSIS":"548.283","EPHEMERIS_TYPE":"0","ARG_OF_PERICENTER":"66.4668","TIME_SYSTEM":"UTC","DECAY_DATE":null,"RA_OF_ASC_NODE":"99.8678","INCLINATION":"53.0546","EPOCH":"2022-01-30T22:00:10.293984","BSTAR":"0.00006221300000","ELEMENT_SET_NO":"999","ECCENTRICITY":"0.00015390","NORAD_CAT_ID":"47753","SEMIMAJOR_AXIS":"6925.352","MEAN_ELEMENT_THEORY":"SGP4","COUNTRY_CODE":"US","TLE_LINE2":"2 47753  53.0546  99.8678 0001539  66.4668 293.6483 15.06398799 51875","REV_AT_EPOCH":"5187"},{"COUNTRY_CODE":"US","REV_AT_EPOCH":"5183","TLE_LINE2":"2 47754  53.0553 100.0093 0001562  62.2989 297.8158 15.06405432 51830","BSTAR":"0.00020611000000","ELEMENT_SET_NO":"999","ECCENTRICITY":"0.00015620","SEMIMAJOR_AXIS":"6925.332","NORAD_CAT_ID":"47754","MEAN_ELEMENT_THEORY":"SGP4","EPOCH":"2022-01-30T21:17:42.746784","INCLINATION":"53.0553","RA_OF_ASC_NODE":"100.0093","ARG_OF_PERICENTER":"62.2989","APOAPSIS":"548.279","EPHEMERIS_TYPE":"0","TIME_SYSTEM":"UTC","DECAY_DATE":null,"SITE":"AFETR","GP_ID":"194982179","MEAN_MOTION_DOT":"0.00002790","MEAN_MOTION":"15.06405432","PERIAPSIS":"546.115","OBJECT_TYPE":"PAYLOAD","CENTER_NAME":"EARTH","REF_FRAME":"TEME","RCS_SIZE":"LARGE","OBJECT_ID":"2021-017AJ","MEAN_ANOMALY":"297.8158","TLE_LINE1":"1 47754U 21017AJ  22030.88730031  .00002790  00000-0  20611-3 0  9996","PERIOD":"95.592","FILE":"3287903","OBJECT_NAME":"STARLINK-2171","LAUNCH_DATE":"2021-03-04","CLASSIFICATION_TYPE":"U","MEAN_MOTION_DDOT":"0.0000000000000"},{"INCLINATION":"53.0536","RA_OF_ASC_NODE":"85.8730","DECAY_DATE":null,"TIME_SYSTEM":"UTC","APOAPSIS":"441.164","EPHEMERIS_TYPE":"0","ARG_OF_PERICENTER":"35.1025","GP_ID":"194982429","SITE":"AFETR","MEAN_MOTION_DOT":"-0.00000396","REV_AT_EPOCH":"5202","TLE_LINE2":"2 47755  53.0536  85.8730 0002137  35.1025 325.0120 15.42170256 52027","COUNTRY_CODE":"US","NORAD_CAT_ID":"47755","SEMIMAJOR_AXIS":"6817.842","MEAN_ELEMENT_THEORY":"SGP4","BSTAR":"0.00000037364000","ELEMENT_SET_NO":"999","ECCENTRICITY":"0.00021370","EPOCH":"2022-01-30T20:47:32.122464","LAUNCH_DATE":"2021-03-04","CLASSIFICATION_TYPE":"U","MEAN_MOTION_DDOT":"0.0000000000000","PERIAPSIS":"438.250","MEAN_MOTION":"15.42170256","REF_FRAME":"TEME","CENTER_NAME":"EARTH","OBJECT_TYPE":"PAYLOAD","MEAN_ANOMALY":"325.0120","OBJECT_ID":"2021-017AK","RCS_SIZE":"LARGE","OBJECT_NAME":"STARLINK-2172","FILE":"3287903","TLE_LINE1":"1 47755U 21017AK  22030.86634401 -.00000396  00000-0  37364-6 0  9996","PERIOD":"93.375"},{"FILE":"3287903","OBJECT_NAME":"STARLINK-2174","PERIOD":"95.592","TLE_LINE1":"1 47756U 21017AL  22030.88361095  .00001456  00000-0  11662-3 0  9992","RCS_SIZE":"LARGE","OBJECT_ID":"2021-017AL","MEAN_ANOMALY":"285.5871","REF_FRAME":"TEME","OBJECT_TYPE":"PAYLOAD","CENTER_NAME":"EARTH","MEAN_MOTION":"15.06399282","PERIAPSIS":"546.257","MEAN_MOTION_DDOT":"0.0000000000000","CLASSIFICATION_TYPE":"U","LAUNCH_DATE":"2021-03-04","EPOCH":"2022-01-30T21:12:23.986080","ECCENTRICITY":"0.00013850","BSTAR":"0.00011662000000","ELEMENT_SET_NO":"999","SEMIMAJOR_AXIS":"6925.351","NORAD_CAT_ID":"47756","MEAN_ELEMENT_THEORY":"SGP4","COUNTRY_CODE":"US","TLE_LINE2":"2 47756  53.0563 100.0328 0001385  74.5271 285.5871 15.06399282 51872","REV_AT_EPOCH":"5187","MEAN_MOTION_DOT":"0.00001456","GP_ID":"194983181","SITE":"AFETR","DECAY_DATE":null,"EPHEMERIS_TYPE":"0","APOAPSIS":"548.175","ARG_OF_PERICENTER":"74.5271","TIME_SYSTEM":"UTC","INCLINATION":"53.0563","RA_OF_ASC_NODE":"100.0328"},{"MEAN_MOTION_DDOT":"0.0000000000000","CLASSIFICATION_TYPE":"U","LAUNCH_DATE":"2021-03-04","PERIOD":"95.592","TLE_LINE1":"1 47757U 21017AM  22030.60347728  .00001799  00000-0  13961-3 0  9994","FILE":"3287903","OBJECT_NAME":"STARLINK-2175","RCS_SIZE":"LARGE","MEAN_ANOMALY":"300.5387","OBJECT_ID":"2021-017AM","OBJECT_TYPE":"PAYLOAD","CENTER_NAME":"EARTH","REF_FRAME":"TEME","MEAN_MOTION":"15.06402252","PERIAPSIS":"545.961","MEAN_MOTION_DOT":"0.00001799","SITE":"AFETR","GP_ID":"194983931","ARG_OF_PERICENTER":"59.5780","APOAPSIS":"548.452","EPHEMERIS_TYPE":"0","TIME_SYSTEM":"UTC","DECAY_DATE":null,"RA_OF_ASC_NODE":"101.2929","INCLINATION":"53.0552","EPOCH":"2022-01-30T14:29:00.436992","ECCENTRICITY":"0.00017980","BSTAR":"0.00013961000000","ELEMENT_SET_NO":"999","SEMIMAJOR_AXIS":"6925.342","NORAD_CAT_ID":"47757","MEAN_ELEMENT_THEORY":"SGP4","COUNTRY_CODE":"US","TLE_LINE2":"2 47757  53.0552 101.2929 0001798  59.5780 300.5387 15.06402252 51778","REV_AT_EPOCH":"5177"},{"SITE":"AFETR","GP_ID":"194982679","MEAN_MOTION_DOT":"0.00111916","INCLINATION":"53.0587","RA_OF_ASC_NODE":"93.9527","APOAPSIS":"440.023","ARG_OF_PERICENTER":"32.4684","EPHEMERIS_TYPE":"0","TIME_SYSTEM":"UTC","DECAY_DATE":null,"BSTAR":"0.00250570000000","ECCENTRICITY":"0.00023590","ELEMENT_SET_NO":"999","SEMIMAJOR_AXIS":"6816.550","NORAD_CAT_ID":"47758","MEAN_ELEMENT_THEORY":"SGP4","EPOCH":"2022-01-30T13:24:28.607616","COUNTRY_CODE":"US","REV_AT_EPOCH":"5193","TLE_LINE2":"2 47758  53.0587  93.9527 0002359  32.4684 327.6466 15.42608847 51939","CLASSIFICATION_TYPE":"U","MEAN_MOTION_DDOT":"0.0000000000000","LAUNCH_DATE":"2021-03-04","RCS_SIZE":"LARGE","OBJECT_ID":"2021-017AN","MEAN_ANOMALY":"327.6466","PERIOD":"93.348","TLE_LINE1":"1 47758U 21017AN  22030.55866444  .00111916  00000-0  25057-2 0  9991","FILE":"3287903","OBJECT_NAME":"STARLINK-2176","PERIAPSIS":"436.807","MEAN_MOTION":"15.42608847","OBJECT_TYPE":"PAYLOAD","CENTER_NAME":"EARTH","REF_FRAME":"TEME"},{"SEMIMAJOR_AXIS":"6714.762","NORAD_CAT_ID":"47759","MEAN_ELEMENT_THEORY":"SGP4","BSTAR":"0.00108880000000","ELEMENT_SET_NO":"999","ECCENTRICITY":"0.00076480","EPOCH":"2022-01-30T13:51:29.803392","REV_AT_EPOCH":"5194","TLE_LINE2":"2 47759  53.0530  45.3412 0007648 277.3846  82.6305 15.77817727 51946","COUNTRY_CODE":"US","SITE":"AFETR","GP_ID":"194959587","MEAN_MOTION_DOT":"0.00190926","INCLINATION":"53.0530","RA_OF_ASC_NODE":"45.3412","TIME_SYSTEM":"UTC","ARG_OF_PERICENTER":"277.3846","APOAPSIS":"341.762","EPHEMERIS_TYPE":"0","DECAY_DATE":null,"MEAN_ANOMALY":"82.6305","OBJECT_ID":"2021-017AP","RCS_SIZE":"LARGE","PERIOD":"91.265","TLE_LINE1":"1 47759U 21017AP  22030.57742828  .00190926  00000-0  10888-2 0  9997","OBJECT_NAME":"STARLINK-2177","FILE":"3287802","MEAN_MOTION":"15.77817727","PERIAPSIS":"331.491","CENTER_NAME":"EARTH","OBJECT_TYPE":"PAYLOAD","REF_FRAME":"TEME","CLASSIFICATION_TYPE":"U","MEAN_MOTION_DDOT":"0.0000000000000","LAUNCH_DATE":"2021-03-04"},{"RA_OF_ASC_NODE":"111.1329","INCLINATION":"53.0565","DECAY_DATE":null,"APOAPSIS":"548.276","EPHEMERIS_TYPE":"0","ARG_OF_PERICENTER":"52.2897","TIME_SYSTEM":"UTC","GP_ID":"194983681","SITE":"AFETR","MEAN_MOTION_DOT":"0.00000001","COUNTRY_CODE":"US","TLE_LINE2":"2 47760  53.0565 111.1329 0001551  52.2897 307.8233 15.06403666 51675","REV_AT_EPOCH":"5167","ELEMENT_SET_NO":"999","BSTAR":"0.00001893700000","ECCENTRICITY":"0.00015510","SEMIMAJOR_AXIS":"6925.337","NORAD_CAT_ID":"47760","MEAN_ELEMENT_THEORY":"SGP4","EPOCH":"2022-01-30T15:15:27.214560","LAUNCH_DATE":"2021-03-04","CLASSIFICATION_TYPE":"U","MEAN_MOTION_DDOT":"0.0000000000000","MEAN_MOTION":"15.06403666","PERIAPSIS":"546.128","REF_FRAME":"TEME","OBJECT_TYPE":"PAYLOAD","CENTER_NAME":"EARTH","RCS_SIZE":"LARGE","MEAN_ANOMALY":"307.8233","OBJECT_ID":"2021-017AQ","FILE":"3287903","OBJECT_NAME":"STARLINK-2178","TLE_LINE1":"1 47760U 21017AQ  22030.63573165  .00000001  00000-0  18937-4 0  9991","PERIOD":"95.592"},{"FILE":"3287903","OBJECT_NAME":"STARLINK-2179","TLE_LINE1":"1 47761U 21017AR  22030.59979789  .00001763  00000-0  13724-3 0  9993","PERIOD":"95.592","RCS_SIZE":"LARGE","MEAN_ANOMALY":"298.1220","OBJECT_ID":"2021-017AR","REF_FRAME":"TEME","OBJECT_TYPE":"PAYLOAD","CENTER_NAME":"EARTH","PERIAPSIS":"546.119","MEAN_MOTION":"15.06396883","MEAN_MOTION_DDOT":"0.0000000000000","CLASSIFICATION_TYPE":"U","LAUNCH_DATE":"2021-03-04","EPOCH":"2022-01-30T14:23:42.537696","BSTAR":"0.00013724000000","ECCENTRICITY":"0.00015940","ELEMENT_SET_NO":"999","SEMIMAJOR_AXIS":"6925.358","MEAN_ELEMENT_THEORY":"SGP4","NORAD_CAT_ID":"47761","COUNTRY_CODE":"US","REV_AT_EPOCH":"5178","TLE_LINE2":"2 47761  53.0552 101.3003 0001594  61.9930 298.1220 15.06396883 51786","MEAN_MOTION_DOT":"0.00001763","GP_ID":"194983432","SITE":"AFETR","DECAY_DATE":null,"APOAPSIS":"548.327","EPHEMERIS_TYPE":"0","ARG_OF_PERICENTER":"61.9930","TIME_SYSTEM":"UTC","INCLINATION":"53.0552","RA_OF_ASC_NODE":"101.3003"},{"REV_AT_EPOCH":"5158","TLE_LINE2":"2 47762  53.0545 116.4896 0001418  57.2368 302.8758 15.06390299 51586","COUNTRY_CODE":"US","SEMIMAJOR_AXIS":"6925.378","NORAD_CAT_ID":"47762","MEAN_ELEMENT_THEORY":"SGP4","ECCENTRICITY":"0.00014180","BSTAR":"0.00002655200000","ELEMENT_SET_NO":"999","EPOCH":"2022-01-30T13:24:37.572480","INCLINATION":"53.0545","RA_OF_ASC_NODE":"116.4896","TIME_SYSTEM":"UTC","ARG_OF_PERICENTER":"57.2368","APOAPSIS":"548.225","EPHEMERIS_TYPE":"0","DECAY_DATE":null,"SITE":"AFETR","GP_ID":"194953341","MEAN_MOTION_DOT":"0.00000114","PERIAPSIS":"546.261","MEAN_MOTION":"15.06390299","CENTER_NAME":"EARTH","OBJECT_TYPE":"PAYLOAD","REF_FRAME":"TEME","OBJECT_ID":"2021-017AS","MEAN_ANOMALY":"302.8758","RCS_SIZE":"LARGE","PERIOD":"95.593","TLE_LINE1":"1 47762U 21017AS  22030.55876820  .00000114  00000-0  26552-4 0  9995","OBJECT_NAME":"STARLINK-2180","FILE":"3287677","LAUNCH_DATE":"2021-03-04","CLASSIFICATION_TYPE":"U","MEAN_MOTION_DDOT":"0.0000000000000"}];
